NORAD_CAT_ID,OBJECT_NAME,OBJECT_TYPE,EPOCH,MEAN_MOTION,ECCENTRICITY,INCLINATION,RA_OF_ASC_NODE,ARG_OF_PERICENTER,MEAN_ANOMALY,BSTAR,MEAN_MOTION_DOT,MEAN_MOTION_DDOT,TLE_LINE0,TLE_LINE1,TLE_LINE2,SEMIMAJOR_AXIS,PERIOD,APOGEE,PERIGEE,DECAYED
52334.0,STARLINK-3880,PAYLOAD,2024-02-27 22:44:12,15.08841252,0.0001378,53.2152,294.4436,97.7417,262.3732,0.00015857,2.237e-05,0.0,0 STARLINK-3880,1 52334U 22045D   24058.94736860  .00002237  00000-0  15857-3 0  9995,2 52334  53.2152 294.4436 0001378  97.7417 262.3732 15.08841252103806,6917.877,95.437,540.695,538.788,0.0
52334.0,STARLINK-3880,PAYLOAD,2024-02-28 08:16:31,15.0884106,0.0001278,53.2146,292.6595,97.8741,262.2397,0.00015351,2.156e-05,0.0,0 STARLINK-3880,1 52334U 22045D   24059.34480909  .00002156  00000-0  15351-3 0  9999,2 52334  53.2146 292.6595 0001278  97.8741 262.2397 15.08841060103864,6917.877,95.437,540.626,538.858,0.0
52334.0,STARLINK-3880,PAYLOAD,2024-02-28 19:24:13,15.08831656,0.0001378,53.2148,290.5781,99.3424,260.7724,9.7825e-05,1.269e-05,0.0,0 STARLINK-3880,1 52334U 22045D   24059.80849466  .00001269  00000-0  97825-4 0  9998,2 52334  53.2148 290.5781 0001378  99.3424 260.7724 15.08831656103931,6917.906,95.438,540.724,538.818,0.0
52334.0,STARLINK-3880,PAYLOAD,2024-02-28 20:59:37,15.08832486,0.0001367,53.2153,290.2808,98.7314,261.3833,5.3706e-05,5.67e-06,0.0,0 STARLINK-3880,1 52334U 22045D   24059.87473513  .00000567  00000-0  53706-4 0  9991,2 52334  53.2153 290.2808 0001367  98.7314 261.3833 15.08832486103944,6917.903,95.438,540.714,538.823,0.0
52334.0,STARLINK-3880,PAYLOAD,2024-02-29 14:28:51,15.08840199,0.0001341,53.2159,287.0103,96.3076,263.8068,0.00015469,2.175e-05,0.0,0 STARLINK-3880,1 52334U 22045D   24060.60337324  .00002175  00000-0  15469-3 0  9993,2 52334  53.2159 287.0103 0001341  96.3076 263.8068 15.08840199104053,6917.88,95.438,540.672,538.817,0.0
52334.0,STARLINK-3880,PAYLOAD,2024-02-29 20:50:23,15.08840951,0.0001357,53.2165,285.8215,98.4426,261.672,7.5614e-05,9.16e-06,0.0,0 STARLINK-3880,1 52334U 22045D   24060.86833285  .00000916  00000-0  75614-4 0  9998,2 52334  53.2165 285.8215 0001357  98.4426 261.6720 15.08840951104090,6917.877,95.437,540.681,538.804,0.0
52334.0,STARLINK-3880,PAYLOAD,2024-02-29 22:25:47,15.08842112,0.0001334,53.2164,285.524,97.1568,262.9576,8.7419e-05,1.104e-05,0.0,0 STARLINK-3880,1 52334U 22045D   24060.93457217  .00001104  00000-0  87419-4 0  9999,2 52334  53.2164 285.5240 0001334  97.1568 262.9576 15.08842112104108,6917.874,95.437,540.662,538.816,0.0
52334.0,STARLINK-3880,PAYLOAD,2024-03-01 07:58:05,15.0884366,0.0001502,53.2174,283.7376,91.0189,269.0976,0.00028303,4.22e-05,0.0,0 STARLINK-3880,1 52334U 22045D   24061.33201244  .00004220  00000-0  28303-3 0  9999,2 52334  53.2174 283.7376 0001502  91.0189 269.0976 15.08843660104165,6917.869,95.437,540.773,538.695,0.0
52334.0,STARLINK-3880,PAYLOAD,2024-03-01 20:41:10,15.08854762,0.0001276,53.2159,281.359,87.9358,272.1781,0.00026129,3.875e-05,0.0,0 STARLINK-3880,1 52334U 22045D   24061.86192362  .00003875  00000-0  26129-3 0  9996,2 52334  53.2159 281.3590 0001276  87.9358 272.1781 15.08854762104243,6917.835,95.437,540.583,538.818,0.0
52334.0,STARLINK-3880,PAYLOAD,2024-03-01 22:16:33,15.08856321,0.0001275,53.216,281.0617,87.6981,272.4157,0.00028288,4.219e-05,0.0,0 STARLINK-3880,1 52334U 22045D   24061.92816265  .00004219  00000-0  28288-3 0  9999,2 52334  53.2160 281.0617 0001275  87.6981 272.4157 15.08856321104254,6917.831,95.437,540.578,538.813,0.0
52334.0,STARLINK-3880,PAYLOAD,2024-03-02 20:31:57,15.0884355,0.0001199,53.2163,276.8974,103.5569,256.5557,2.6483e-05,1.34e-06,0.0,0 STARLINK-3880,1 52334U 22045D   24062.85552601  .00000134  00000-0  26483-4 0  9991,2 52334  53.2163 276.8974 0001199 103.5569 256.5557 15.08843550104392,6917.87,95.437,540.564,538.905,0.0
52334.0,STARLINK-3880,PAYLOAD,2024-03-03 07:39:39,15.08841139,0.0001201,53.2151,274.8155,95.9519,264.161,1.1118e-05,-1.11e-06,0.0,0 STARLINK-3880,1 52334U 22045D   24063.31920902 -.00000111  00000-0  11118-4 0  9991,2 52334  53.2151 274.8155 0001201  95.9519 264.1610 15.08841139104465,6917.877,95.437,540.573,538.911,0.0
52334.0,STARLINK-3880,PAYLOAD,2024-03-03 20:22:44,15.08843322,0.0001306,53.2158,272.4361,105.5254,254.5883,-3.7476e-06,-3.48e-06,0.0,0 STARLINK-3880,1 52334U 22045D   24063.84912811 -.00000348  00000-0 -37476-5 0  9998,2 52334  53.2158 272.4361 0001306 105.5254 254.5883 15.08843322104545,6917.87,95.437,540.639,538.832,0.0
52334.0,STARLINK-3880,PAYLOAD,2024-03-04 20:13:31,15.08854565,0.0001352,53.2158,267.9748,102.7014,257.413,0.00040416,6.153e-05,0.0,0 STARLINK-3880,1 52334U 22045D   24064.84272259  .00006153  00000-0  40416-3 0  9998,2 52334  53.2158 267.9748 0001352 102.7014 257.4130 15.08854565104691,6917.836,95.437,540.636,538.766,0.0
52334.0,STARLINK-3880,PAYLOAD,2024-03-05 13:42:46,15.08840209,0.0001054,53.2158,264.7055,88.3773,271.734,6.8776e-05,8.07e-06,0.0,0 STARLINK-3880,1 52334U 22045D   24065.57136884  .00000807  00000-0  68776-4 0  9992,2 52334  53.2158 264.7055 0001054  88.3773 271.7340 15.08840209104802,6917.88,95.438,540.474,539.016,0.0
52334.0,STARLINK-3880,PAYLOAD,2024-03-05 18:28:55,15.08838276,0.0001186,53.2158,263.8135,99.3004,260.8123,5.0338e-06,-2.08e-06,0.0,0 STARLINK-3880,1 52334U 22045D   24065.77008950 -.00000208  00000-0  50338-5 0  9998,2 52334  53.2158 263.8135 0001186  99.3004 260.8123 15.08838276104838,6917.886,95.438,540.571,538.93,0.0
52334.0,STARLINK-3880,PAYLOAD,2024-03-06 13:33:33,15.0883474,0.0001159,53.2157,260.2467,84.0683,276.0441,0.00018186,2.607e-05,0.0,0 STARLINK-3880,1 52334U 22045D   24066.56497537  .00002607  00000-0  18186-3 0  9996,2 52334  53.2157 260.2467 0001159  84.0683 276.0441 15.08834740104957,6917.896,95.438,540.563,538.96,0.0
52334.0,STARLINK-3880,PAYLOAD,2024-03-06 19:55:06,15.08842846,0.000122,53.2153,259.0578,79.1041,281.0088,0.00018482,2.655e-05,0.0,0 STARLINK-3880,1 52334U 22045D   24066.82993254  .00002655  00000-0  18482-3 0  9994,2 52334  53.2153 259.0578 0001220  79.1041 281.0088 15.08842846104997,6917.872,95.437,540.581,538.893,0.0
52334.0,STARLINK-3880,PAYLOAD,2024-03-07 11:48:58,15.08835419,0.0001222,53.2148,256.086,79.724,280.389,0.00019392,2.799e-05,0.0,0 STARLINK-3880,1 52334U 22045D   24067.49233853  .00002799  00000-0  19392-3 0  9990,2 52334  53.2148 256.0860 0001222  79.7240 280.3890 15.08835419105094,6917.894,95.438,540.605,538.914,0.0
52334.0,STARLINK-3880,PAYLOAD,2024-03-08 05:18:12,15.08841454,0.0001312,53.2153,252.814,84.4143,275.6998,0.000199,2.881e-05,0.0,0 STARLINK-3880,1 52334U 22045D   24068.22097833  .00002881  00000-0  19900-3 0  9995,2 52334  53.2153 252.8140 0001312  84.4143 275.6998 15.08841454105205,6917.876,95.437,540.649,538.833,0.0
52334.0,STARLINK-3880,PAYLOAD,2024-03-08 21:12:03,15.08851384,0.0001242,53.2148,249.8396,82.4189,277.6944,0.00021875,3.196e-05,0.0,0 STARLINK-3880,1 52334U 22045D   24068.88337177  .00003196  00000-0  21875-3 0  9999,2 52334  53.2148 249.8396 0001242  82.4189 277.6944 15.08851384105305,6917.846,95.437,540.57,538.851,0.0
52334.0,STARLINK-3880,PAYLOAD,2024-03-09 05:08:59,15.08847797,7.76e-05,53.2148,248.3523,83.1719,276.9362,0.00018881,2.719e-05,0.0,0 STARLINK-3880,1 52334U 22045D   24069.21457183  .00002719  00000-0  18881-3 0  9990,2 52334  53.2148 248.3523 0000776  83.1719 276.9362 15.08847797105353,6917.857,95.437,540.258,539.185,0.0
52334.0,STARLINK-3880,PAYLOAD,2024-03-09 11:30:32,15.0884058,0.0001448,53.215,247.162,85.2869,274.8289,0.00014884,2.082e-05,0.0,0 STARLINK-3880,1 52334U 22045D   24069.47953756  .00002082  00000-0  14884-3 0  9997,2 52334  53.2150 247.1620 0001448  85.2869 274.8289 15.08840580105399,6917.879,95.438,540.745,538.742,0.0
52334.0,STARLINK-3880,PAYLOAD,2024-03-09 17:52:04,15.08839681,0.0001439,53.2132,245.9721,81.6454,278.4702,5.6531e-05,6.12e-06,0.0,0 STARLINK-3880,1 52334U 22045D   24069.74449636  .00000612  00000-0  56531-4 0  9997,2 52334  53.2132 245.9721 0001439  81.6454 278.4702 15.08839681105432,6917.881,95.438,540.742,538.751,0.0
52334.0,STARLINK-3880,PAYLOAD,2024-03-10 04:59:46,15.08843131,0.0001231,53.2143,243.8904,87.4819,272.6314,9.4295e-05,1.213e-05,0.0,0 STARLINK-3880,1 52334U 22045D   24070.20817672  .00001213  00000-0  94295-4 0  9996,2 52334  53.2143 243.8904 0001231  87.4819 272.6314 15.08843131105501,6917.871,95.437,540.587,538.884,0.0
52334.0,STARLINK-3880,PAYLOAD,2024-03-10 17:42:51,15.08844735,0.0001492,53.2127,241.5093,92.7403,267.376,7.6866e-05,9.36e-06,0.0,0 STARLINK-3880,1 52334U 22045D   24070.73809602  .00000936  00000-0  76866-4 0  9993,2 52334  53.2127 241.5093 0001492  92.7403 267.3760 15.08844735105589,6917.866,95.437,540.763,538.699,0.0
52334.0,STARLINK-3880,PAYLOAD,2024-03-11 04:50:33,15.08843828,0.0001332,53.2132,239.4279,97.2773,262.837,0.00018101,2.594e-05,0.0,0 STARLINK-3880,1 52334U 22045D   24071.20177612  .00002594  00000-0  18101-3 0  9994,2 52334  53.2132 239.4279 0001332  97.2773 262.8370 15.08843828105657,6917.869,95.437,540.655,538.812,0.0
52334.0,STARLINK-3880,PAYLOAD,2024-03-11 20:44:24,15.08841762,9.34e-05,53.218,236.4548,95.218,264.8918,0.00012271,1.666e-05,0.0,0 STARLINK-3880,1 52334U 22045D   24071.86417751  .00001666  00000-0  12271-3 0  9998,2 52334  53.2180 236.4548 0000934  95.2180 264.8918 15.08841762105759,6917.875,95.437,540.386,539.094,0.0
52334.0,STARLINK-3880,PAYLOAD,2024-03-12 17:24:25,15.08845814,0.0001829,53.2118,232.5898,88.6486,271.4716,5.9187e-05,6.54e-06,0.0,0 STARLINK-3880,1 52334U 22045D   24072.72529682  .00000654  00000-0  59187-4 0  9995,2 52334  53.2118 232.5898 0001829  88.6486 271.4716 15.08845814105880,6917.863,95.437,540.993,538.462,0.0
52334.0,STARLINK-3880,PAYLOAD,2024-03-13 10:53:40,15.08838408,0.0001526,53.2098,229.3193,87.5089,272.6077,8.2515e-05,1.025e-05,0.0,0 STARLINK-3880,1 52334U 22045D   24073.45394089  .00001025  00000-0  82515-4 0  9991,2 52334  53.2098 229.3193 0001526  87.5089 272.6077 15.08838408105996,6917.885,95.438,540.806,538.695,0.0
